CHINASAT 12 (ZX 12)     
1 39017U 12067A   18161.88743056 -.00000202  00000-0  00000-0 0  9999
2 39017   0.0103  22.8299 0002617  61.4670 221.8639  1.00272718 20144
EUTELSAT 70B            
1 39020U 12069A   18162.08387395 -.00000038  00000-0  00000+0 0  9994
2 39020   0.0620  19.3364 0003259  66.2573 274.4549  1.00272187 20250
YAMAL 402               
1 39022U 12070A   18162.10674311  .00000091  00000-0  00000+0 0  9996
2 39022   0.0265  64.0271 0002701  24.6921 264.0098  1.00272810 20232
SKYNET 5D               
1 39034U 12075A   18161.93313287  .00000105  00000-0  00000-0 0  9993
2 39034   0.0679 359.9931 0003204  81.9252 206.0064  1.00269263 19803
MEXSAT 3                
1 39035U 12075B   18161.59979282 -.00000019  00000-0  00000-0 0  9994
2 39035   0.0104 310.0686 0001882 130.3885 279.5642  1.00269664 20111
TDRS 11                 
1 39070U 13004A   18161.66841317  .00000097  00000-0  00000-0 0  9996
2 39070   4.9068 328.7047 0004545 335.0739  24.8948  1.00263485 17335
AMAZONAS 3              
1 39078U 13006A   18161.45074732 -.00000277  00000-0  00000+0 0  9992
2 39078   0.0372 226.9887 0001757 249.5518 243.4889  1.00273530 19602
AZERSPACE 1             
1 39079U 13006B   18162.15163443  .00000139  00000-0  00000+0 0  9995
2 39079   0.0215 350.5338 0002220 109.8716 259.6196  1.00268226 19570
EUTELSAT 117 WEST A     
1 39122U 13012A   18161.60526552 -.00000007  00000-0  00000-0 0  9990
2 39122   0.0247   9.2651 0002718  70.3715 280.3940  1.00270993 19104
ANIK G1                 
1 39127U 13014A   18161.57897677 -.00000068  00000-0  00000+0 0  9998
2 39127   0.0185 300.2942 0001159  96.1663 323.5589  1.00267597 18893
CHINASAT 11 (ZX 11)     
1 39157U 13020A   18161.92685634 -.00000286  00000-0  00000-0 0  9998
2 39157   0.0179 263.5838 0002279  48.9483  18.3803  1.00270669 18783
EUTELSAT 7B             
1 39163U 13022A   18162.25970295  .00000053  00000-0  00000+0 0  9994
2 39163   0.0441  21.2242 0004042  18.5239 320.2928  1.00271530 18637
SES-6                   
1 39172U 13026A   18161.39397552 -.00000255  00000-0  00000-0 0  9997
2 39172   0.0250 330.0042 0001751 115.7041 274.3232  1.00270090 18366
IRNSS-1A                
1 39199U 13034A   18161.43039691  .00000110  00000-0  00000+0 0  9995
2 39199  29.4348 108.9045 0018092 186.9459 172.9384  1.00268124 18278
ALPHASAT                
1 39215U 13038A   18161.28323900  .00000141  00000-0  00000-0 0  9995
2 39215   1.9631  25.8726 0001817  47.4164 312.1121  1.00269547 14689
INSAT-3D                
1 39216U 13038B   18161.05431217 -.00000151  00000-0  00000-0 0  9994
2 39216   0.0307 291.5623 0000953 185.9830 242.4757  1.00272958 17757
EUTELSAT 25B            
1 39233U 13044A   18162.20836666  .00000149  00000-0  00000+0 0  9990
2 39233   0.0472 353.8199 0001731  98.6429 267.5684  1.00274443 17543
GSAT-7                  
1 39234U 13044B   18162.07395069 -.00000072  00000-0  00000+0 0  9999
2 39234   0.0404 265.3152 0001962  67.2805  27.4053  1.00271056 17541
AMOS-4                  
1 39237U 13045A   18161.10175585  .00000012  00000-0  00000-0 0  9999
2 39237   0.0265 102.1804 0002255 327.5611 290.2942  1.00273171 17596
ASTRA 2E                
1 39285U 13056A   18161.20286160  .00000156  00000-0  00000-0 0  9996
2 39285   0.0662 333.9580 0002409 103.7951 282.2855  1.00271881 17104
SIRIUS FM-6             
1 39360U 13058A   18160.60605430 -.00000011  00000-0  00000-0 0  9991
2 39360   0.0248 327.4584 0000388 276.5983 115.9393  1.00270242 16803
RADUGA-1M 3             
1 39375U 13062A   18161.88394111 -.00000034  00000-0  00000-0 0  9999
2 39375   0.0014  66.7114 0003314  35.5473 185.1516  1.00272576 16764
SES-8                   
1 39460U 13071A   18161.01860712 -.00000264  00000-0  00000+0 0  9998
2 39460   0.0198 286.1440 0002809 157.3208 276.5787  1.00272122 16503
INMARSAT 5-F1           
1 39476U 13073A   18162.10550833  .00000034  00000-0  00000+0 0  9992
2 39476   0.0230 342.4219 0000408 327.9157  49.6588  1.00268950 16577
TKSAT-1 (TUPAC KATARI)  
1 39481U 13075A   18161.85262344 -.00000189  00000-0  00000-0 0  9991
2 39481   0.0344 219.0994 0002688 192.9498  66.8453  1.00269837 16238
EXPRESS-AM5             
1 39487U 13077A   18161.88582170 -.00000275  00000-0  00000-0 0  9990
2 39487   0.0279 214.5335 0001065 174.3612 329.2190  1.00270639 17002
GSAT-14                 
1 39498U 14001A   18161.07684979 -.00000072  00000-0  00000-0 0  9996
2 39498   0.0658 113.1592 0004574 322.6384 284.2646  1.00271563 16086
THAICOM 6               
1 39500U 14002A   18161.92833632 -.00000116  00000-0  00000-0 0  9996
2 39500   0.0666 126.1909 0003783 343.5430 202.1903  1.00271722 16093
TDRS 12                 
1 39504U 14004A   18162.32569320 -.00000268  00000-0  00000+0 0  9994
2 39504   5.5696 335.9963 0002400 106.1916 253.8133  1.00270129 16095
ABS-2                   
1 39508U 14006A   18162.07160464 -.00000081  00000-0  00000+0 0  9991
2 39508   0.0381  64.4298 0003648  16.1146 279.5082  1.00271731 15968
ATHENA-FIDUS            
1 39509U 14006B   18162.17433618  .00000159  00000-0  00000+0 0  9992
2 39509   0.0096 318.4776 0000907 109.9013 291.6421  1.00272242 16145
TURKSAT 4A              
1 39522U 14007A   18161.16539612  .00000152  00000-0  00000+0 0  9990
2 39522   0.0258 283.3033 0000450 108.8839 327.8270  1.00272580 15848
EXPRESS-AT1             
1 39612U 14010A   18162.16833006  .00000083  00000-0  00000+0 0  9992
2 39612   0.0314 197.6412 0000181 318.3884 220.0476  1.00273956 15691
EXPRESS-AT2             
1 39613U 14010B   18162.40045814 -.00000276  00000-0  00000+0 0  9997
2 39613   0.0335 191.4054 0000125 230.3990 121.8954  1.00270798 15520
AMAZONAS 4A             
1 39616U 14011A   18162.48384185 -.00000248  00000-0  00000+0 0  9995
2 39616   0.0937  81.4593 0002507   7.7632 270.8172  1.00271393 15510
ASTRA 5B                
1 39617U 14011B   18161.96068472  .00000160  00000-0  00000-0 0  9999
2 39617   0.0330 328.4340 0003291 112.9221 195.2684  1.00273468 15306
IRNSS-1B                
1 39635U 14017A   18160.93313399  .00000067  00000-0  00000-0 0  9998
2 39635  29.2321 289.2095 0021785 179.4659 180.5225  1.00271503 15228
LUCH 5V                 
1 39727U 14023A   18162.53506306 -.00000263  00000-0  00000+0 0  9995
2 39727   1.9864 299.3867 0003480 147.7423 100.0573  1.00272533533162
KAZSAT-3                
1 39728U 14023B   18161.11972952  .00000066  00000-0  00000-0 0  9994
2 39728   0.0153 316.3783 0000315  62.2444 341.3900  1.00271872 13082
EUTELSAT 3B             
1 39773U 14030A   18162.46577233  .00000024  00000-0  00000+0 0  9997
2 39773   0.0638  23.9975 0003026 102.9072 303.6177  1.00271082 14862
ASIASAT 8               
1 40107U 14046A   18161.29490267 -.00000027  00000-0  00000+0 0  9992
2 40107   0.0517 101.6460 0001942 332.8788 286.3692  1.00272638 14134
ASIASAT 6               
1 40141U 14052A   18161.89388601 -.00000357  00000-0  00000-0 0  9998
2 40141   0.0189 347.1762 0000326  83.8959 269.8290  1.00269768 13697
OPTUS 10                
1 40146U 14054A   18161.83458305 -.00000101  00000-0  00000+0 0  9994
2 40146   0.0514  73.8843 0001408   7.5420 278.6011  1.00271176 13768
MEASAT-3B               
1 40147U 14054B   18161.02836434 -.00000236  00000-0  00000-0 0  9999
2 40147   0.0257   5.7688 0002140  47.8793 306.3830  1.00273631 13540
LUCH (OLYMP)            
1 40258U 14058A   18161.94103307  .00000129  00000-0  10000-3 0  9997
2 40258   0.0012 351.4702 0002364 132.8724 161.7043  1.00274490 13573
HIMAWARI-8              
1 40267U 14060A   18161.88935716 -.00000270  00000-0  00000+0 0  9993
2 40267   0.0142 341.6373 0000582 108.1164 270.2531  1.00271804 13503
IRNSS-1C                
1 40269U 14061A   18161.70013576 -.00000153  00000-0  00000-0 0  9999
2 40269   2.3947 233.4937 0018033   6.1209 354.4919  1.00270910 13326
INTELSAT 30 (IS-30)     
1 40271U 14062A   18161.48140032 -.00000145  00000-0  00000+0 0  9996
2 40271   0.0178 358.9226 0001319 109.9724 228.1411  1.00271688 13391
ARSAT 1                 
1 40272U 14062B   18161.85567670 -.00000254  00000-0  00000-0 0  9991
2 40272   0.0592 117.2779 0001020 325.2107  52.9195  1.00270174 13254
EXPRESS-AM6             
1 40277U 14064A   18162.14977292  .00000103  00000-0  00000+0 0  9997
2 40277   0.0280 223.3917 0000129 261.6655 241.3094  1.00271431 13312
GSAT-16                 
1 40332U 14078A   18161.12939966  .00000090  00000-0  00000-0 0  9993
2 40332   0.0155 265.1709 0007632 179.9565 274.9715  1.00270967 12768
DIRECTV 14              
1 40333U 14078B   18161.80952094 -.00000119  00000-0  00000-0 0  9999
2 40333   0.0214 358.8481 0000699 310.9325 141.5173  1.00269634 12798
YAMAL 401               
1 40345U 14082A   18161.57688380 -.00000223  00000-0  00000-0 0  9991
2 40345   0.0201 314.6497 0000720 229.0396  12.8188  1.00270907 13047
ASTRA 2G                
1 40364U 14089A   18161.20371855  .00000155  00000-0  00000-0 0  9998
2 40364   0.0362  41.6763 0004382  22.4670 295.9135  1.00273627 12606
FENGYUN 2G              
1 40367U 14090A   18162.20858679 -.00000297  00000-0  00000+0 0  9995
2 40367   0.4196 120.7928 0001264 181.4491 132.0158  1.00275343 12684
INMARSAT 5-F2           
1 40384U 15005A   18161.85907889 -.00000280  00000-0  00000-0 0  9992
2 40384   0.0223 346.2997 0000342 276.8345 250.2700  1.00269529 11655
ABS-3A                  
1 40424U 15010A   18161.28988035 -.00000021  00000-0  00000-0 0  9995
2 40424   0.0157   6.9879 0001922   1.8113 351.2041  1.00270521 12058
EUTELSAT 115 WEST B     
1 40425U 15010B   18161.60006940 -.00000019  00000-0  00000+0 0  9994
2 40425   0.0089 152.8355 0000471 264.1103 303.0702  1.00271202 12072
EXPRESS-AM7             
1 40505U 15012A   18162.17549388  .00000156  00000-0  00000+0 0  9997
2 40505   0.0045 324.8803 0002883 112.5098 285.2734  1.00272968 12009
